IRIDIUM 57              
1 25273U 98019B   24212.64983530  .00000687  00000+0  23326-3 0  9994
2 25273  86.3943 279.9161 0002284  93.1645 266.9812 14.35304216378655
IRIDIUM 63              
1 25286U 98021B   24212.93562191  .00000859  00000+0  29000-3 0  9995
2 25286  86.3980 216.6991 0002174  93.3923 266.7522 14.35853794377732
IRIDIUM 71              
1 25320U 98026B   24212.51858848  .00000864  00000+0  26598-3 0  9995
2 25320  86.3960 225.8793 0004385  79.8401 280.3293 14.40411101377529
IRIDIUM 73              
1 25344U 98032C   24212.96583218  .00001343  00000+0  33702-3 0  9991
2 25344  86.4462 183.0805 0002560  74.8999 285.2489 14.50666905383974
